$$SOE
2460154.500000000, A.D. 2023-Jul-29 00:00:00.0000, -1.485900970741674E+08, -2.157149356358386E+08, 1.141846841727115E+07,
2460161.500000000, A.D. 2023-Aug-05 00:00:00.0000, -1.374698746961109E+08, -2.223269835993470E+08, 1.636948158741690E+07,
2460168.500000000, A.D. 2023-Aug-12 00:00:00.0000, -1.259783484614165E+08, -2.283384287952393E+08, 2.127626799031497E+07,
2460175.500000000, A.D. 2023-Aug-19 00:00:00.0000, -1.141455673292959E+08, -2.337312302359623E+08, 2.612540482738529E+07,
2460182.500000000, A.D. 2023-Aug-26 00:00:00.0000, -1.020027789716358E+08, -2.384891181290367E+08, 3.090356906683528E+07,
2460189.500000000, A.D. 2023-Sep-02 00:00:00.0000, -8.958232697659793E+07, -2.425976712787991E+08, 3.559758737449992E+07,
2460196.500000000, A.D. 2023-Sep-09 00:00:00.0000, -7.691754096557021E+07, -2.460443867070250E+08, 4.019448609549187E+07,
2460203.500000000, A.D. 2023-Sep-16 00:00:00.0000, -6.404262008996352E+07, -2.488187408790093E+08, 4.468154091119212E+07,
2460210.500000000, A.D. 2023-Sep-23 00:00:00.0000, -5.099251020655252E+07, -2.509122416481055E+08, 4.904632579456447E+07,
2460217.500000000, A.D. 2023-Sep-30 00:00:00.0000, -3.780277586087461E+07, -2.523184692101926E+08, 5.327676102858184E+07,
2460224.500000000, A.D. 2023-Oct-07 00:00:00.0000, -2.450947028695361E+07, -2.530331061818661E+08, 5.736116009830762E+07,
2460231.500000000, A.D. 2023-Oct-14 00:00:00.0000, -1.114900328933993E+07, -2.530539597869446E+08, 6.128827473795365E+07,
2460238.500000000, A.D. 2023-Oct-21 00:00:00.0000, 2.241995272958771E+06, -2.523809743328831E+08, 6.504733763282690E+07,
2460245.500000000, A.D. 2023-Oct-28 00:00:00.0000, 1.562681399669963E+07, -2.510162316113482E+08, 6.862810277841330E+07,
2460252.500000000, A.D. 2023-Nov-04 00:00:00.0000, 2.896879819444022E+07, -2.489639399950499E+08, 7.202088325874785E+07,
2460259.500000000, A.D. 2023-Nov-11 00:00:00.0000, 4.223148708742855E+07, -2.462304129425525E+08, 7.521658611710916E+07,
2460266.500000000, A.D. 2023-Nov-18 00:00:00.0000, 5.537874916854205E+07, -2.428240371958232E+08, 7.820674406291813E+07,
2460273.500000000, A.D. 2023-Nov-25 00:00:00.0000, 6.837491485289860E+07, -2.387552309714140E+08, 8.098354381090391E+07,
2460280.500000000, A.D. 2023-Dec-02 00:00:00.0000, 8.118490553392464E+07, -2.340363925782809E+08, 8.353985088512108E+07,
2460287.500000000, A.D. 2023-Dec-09 00:00:00.0000, 9.377435826943412E+07, -2.286818400379847E+08, 8.586923075495824E+07,
2460294.500000000, A.D. 2023-Dec-16 00:00:00.0000, 1.061097455933008E+08, -2.227077422976779E+08, 8.796596620202848E+07,
2460301.500000000, A.D. 2023-Dec-23 00:00:00.0000, 1.181584900773614E+08, -2.161320420229135E+08, 8.982507090587057E+07,
2460308.500000000, A.D. 2023-Dec-30 00:00:00.0000, 1.298890716581212E+08, -2.089743696530243E+08, 9.144229945597634E+07,
2460315.500000000, A.D. 2024-Jan-06 00:00:00.0000, 1.412711253973323E+08, -2.012559518552015E+08, 9.281415379147443E+07,
2460322.500000000, A.D. 2024-Jan-13 00:00:00.0000, 1.522755323856985E+08, -1.929995169925501E+08, 9.393788569621238E+07,
2460329.500000000, A.D. 2024-Jan-20 00:00:00.0000, 1.628745046468313E+08, -1.842291953572984E+08, 9.481149559396999E+07,
2460336.500000000, A.D. 2024-Jan-27 00:00:00.0000, 1.730416617386007E+08, -1.749704143660477E+08, 9.543372802064338E+07,
2460343.500000000, A.D. 2024-Feb-03 00:00:00.0000, 1.827520984405787E+08, -1.652497905118663E+08, 9.580406389808552E+07,
2460350.500000000, A.D. 2024-Feb-10 00:00:00.0000, 1.919824437126580E+08, -1.550950191966708E+08, 9.592270974587937E+07,
2460357.500000000, A.D. 2024-Feb-17 00:00:00.0000, 2.007109110584968E+08, -1.445347632452772E+08, 9.579058402448523E+07,
2460364.500000000, A.D. 2024-Feb-24 00:00:00.0000, 2.089173404063638E+08, -1.335985408643115E+08, 9.540930082964675E+07,
2460371.500000000, A.D. 2024-Mar-02 00:00:00.0000, 2.165832316875000E+08, -1.223166138175739E+08, 9.478115116589873E+07,
2460378.500000000, A.D. 2024-Mar-09 00:00:00.0000, 2.236917704675187E+08, -1.107198765712446E+08, 9.390908201893887E+07,
2460385.500000000, A.D. 2024-Mar-16 00:00:00.0000, 2.302278463054240E+08, -9.883974684309678E+07, 9.279667344836938E+07,
2460392.500000000, A.D. 2024-Mar-23 00:00:00.0000, 2.361780640770819E+08, -8.670805702253580E+07, 9.144811405484049E+07,
2460399.500000000, A.D. 2024-Mar-30 00:00:00.0000, 2.415307464082345E+08, -7.435694702014129E+07, 8.986817528289627E+07,
2460406.500000000, A.D. 2024-Apr-06 00:00:00.0000, 2.462759278840013E+08, -6.181876239019768E+07, 8.806218449943979E+07,
2460413.500000000, A.D. 2024-Apr-13 00:00:00.0000, 2.504053450180267E+08, -4.912595729368626E+07, 8.603599680815047E+07,
2460420.500000000, A.D. 2024-Apr-20 00:00:00.0000, 2.539124214833821E+08, -3.631099996073814E+07, 8.379596611191541E+07,
2460427.500000000, A.D. 2024-Apr-27 00:00:00.0000, 2.567922475565762E+08, -2.340628148188436E+07, 8.134891571236861E+07,
2460434.500000000, A.D. 2024-May-04 00:00:00.0000, 2.590415543407320E+08, -1.044402883221955E+07, 7.870210857321654E+07,
2460441.500000000, A.D. 2024-May-11 00:00:00.0000, 2.606586834920378E+08, 2.543777622807346E+06, 7.586321741076723E+07,
2460448.500000000, A.D. 2024-May-18 00:00:00.0000, 2.616435530167389E+08, 1.552548205430462E+07, 7.284029479246669E+07,
2460455.500000000, A.D. 2024-May-25 00:00:00.0000, 2.619976196372311E+08, 2.846982645259881E+07, 6.964174340686688E+07,
2460462.500000000, A.D. 2024-Jun-01 00:00:00.0000, 2.617238382429210E+08, 4.134601918067465E+07, 6.627628663600037E+07,
2460469.500000000, A.D. 2024-Jun-08 00:00:00.0000, 2.608266191071793E+08, 5.412379878927322E+07, 6.275293952401762E+07,
2460476.500000000, A.D. 2024-Jun-15 00:00:00.0000, 2.593117836735235E+08, 6.677349368902750E+07, 5.908098024501111E+07,
2460483.500000000, A.D. 2024-Jun-22 00:00:00.0000, 2.571865182747796E+08, 7.926607895184077E+07, 5.526992233855143E+07,
2460490.500000000, A.D. 2024-Jun-29 00:00:00.0000, 2.544593240313416E+08, 9.157322855474827E+07, 5.132948784234381E+07,
2460497.500000000, A.D. 2024-Jul-06 00:00:00.0000, 2.511399659236287E+08, 1.036673607313724E+08, 4.726958094420277E+07,
2460504.500000000, A.D. 2024-Jul-13 00:00:00.0000, 2.472394232863660E+08, 1.155216794098279E+08, 4.310026224752948E+07,
2460511.500000000, A.D. 2024-Jul-20 00:00:00.0000, 2.427698400099497E+08, 1.271102130664163E+08, 3.883172396141583E+07,
2460518.500000000, A.D. 2024-Jul-27 00:00:00.0000, 2.377444740444462E+08, 1.384078502283800E+08, 3.447426602467238E+07,
2460525.500000000, A.D. 2024-Aug-03 00:00:00.0000, 2.321776467052639E+08, 1.493903714507524E+08, 3.003827312458692E+07,
2460532.500000000, A.D. 2024-Aug-10 00:00:00.0000, 2.260846921460673E+08, 1.600344779681691E+08, 2.553419260018922E+07,
2460539.500000000, A.D. 2024-Aug-17 00:00:00.0000, 2.194819072203523E+08, 1.703178172509359E+08, 2.097251322168724E+07,
2460546.500000000, A.D. 2024-Aug-24 00:00:00.0000, 2.123865019070092E+08, 1.802190056495036E+08, 1.636374482488184E+07,
2460553.500000000, A.D. 2024-Aug-31 00:00:00.0000, 2.048165505344005E+08, 1.897176482692747E+08, 1.171839875900483E+07,
2460560.500000000, A.D. 2024-Sep-07 00:00:00.0000, 1.967909442603055E+08, 1.987943564030673E+08, 7.046969094532803E+06,
2460567.500000000, A.D. 2024-Sep-14 00:00:00.0000, 1.883293449612117E+08, 2.074307637085109E+08, 2.359914634451598E+06,
2460574.500000000, A.D. 2024-Sep-21 00:00:00.0000, 1.794521385334098E+08, 2.156095417214125E+08, -2.332358076319247E+06,
2460581.500000000, A.D. 2024-Sep-28 00:00:00.0000, 1.701803871396955E+08, 2.233144116828895E+08, -7.019510979856849E+06,
2460588.500000000, A.D. 2024-Oct-05 00:00:00.0000, 1.605357841218249E+08, 2.305301528862467E+08, -1.169129033683726E+07,
2460595.500000000, A.D. 2024-Oct-12 00:00:00.0000, 1.505406112421893E+08, 2.372426106879334E+08, -1.633754192641880E+07,
2460602.500000000, A.D. 2024-Oct-19 00:00:00.0000, 1.402176964975694E+08, 2.434387040671791E+08, -2.094822552281402E+07,
2460609.500000000, A.D. 2024-Oct-26 00:00:00.0000, 1.295903724536710E+08, 2.491064320828980E+08, -2.551342876025531E+07,
2460616.500000000, A.D. 2024-Nov-02 00:00:00.0000, 1.186824353258816E+08, 2.542348792189462E+08, -3.002338047158103E+07,
2460623.500000000, A.D. 2024-Nov-09 00:00:00.0000, 1.075181048596944E+08, 2.588142197674081E+08, -3.446846355641300E+07,
2460630.500000000, A.D. 2024-Nov-16 00:00:00.0000, 9.612198498568401E+07, 2.628357213680356E+08, -3.883922742953467E+07,
2460637.500000000, A.D. 2024-Nov-23 00:00:00.0000, 8.451902523947890E+07, 2.662917477583720E+08, -4.312640010519720E+07,
2460644.500000000, A.D. 2024-Nov-30 00:00:00.0000, 7.273448309317403E+07, 2.691757607805023E+08, -4.732089998451518E+07,
2460651.500000000, A.D. 2024-Dec-07 00:00:00.0000, 6.079388754875079E+07, 2.714823221392801E+08, -5.141384738985002E+07,
2460658.500000000, A.D. 2024-Dec-14 00:00:00.0000, 4.872300323101316E+07, 2.732070961972685E+08, -5.539657571784373E+07,
2460665.500000000, A.D. 2024-Dec-21 00:00:00.0000, 3.654779257496919E+07, 2.743468525998549E+08, -5.926064212303809E+07,
2460672.500000000, A.D. 2024-Dec-28 00:00:00.0000, 2.429437795993149E+07, 2.748994658017780E+08, -6.299783817444853E+07,
2460679.500000000, A.D. 2025-Jan-04 00:00:00.0000, 1.198900627743072E+07, 2.748639139441987E+08, -6.660020057243722E+07,
2460686.500000000, A.D. 2025-Jan-11 00:00:00.0000, -3.419859764896689E+05, 2.742402787893139E+08, -7.006002167366371E+07,
2460693.500000000, A.D. 2025-Jan-18 00:00:00.0000, -1.267220809051730E+07, 2.730297458134019E+08, -7.336985986093493E+07,
2460700.500000000, A.D. 2025-Jan-25 00:00:00.0000, -2.497525084861094E+07, 2.712346039853092E+08, -7.652254985902512E+07,
2460707.500000000, A.D. 2025-Feb-01 00:00:00.0000, -3.722472245333135E+07, 2.688582451773908E+08, -7.951121304129964E+07,
2460714.500000000, A.D. 2025-Feb-08 00:00:00.0000, -4.939428469541733E+07, 2.659051631856204E+08, -8.232926773887622E+07,
2460721.500000000, A.D. 2025-Feb-15 00:00:00.0000, -6.145768945113797E+07, 2.623809522901976E+08, -8.497043955918054E+07,
$$EOE